NORAD_CAT_ID,OBJECT_NAME,OBJECT_TYPE,EPOCH,MEAN_MOTION,ECCENTRICITY,INCLINATION,RA_OF_ASC_NODE,ARG_OF_PERICENTER,MEAN_ANOMALY,BSTAR,MEAN_MOTION_DOT,MEAN_MOTION_DDOT,TLE_LINE0,TLE_LINE1,TLE_LINE2,SEMIMAJOR_AXIS,PERIOD,APOGEE,PERIGEE,DECAYED
50190.0,STARLINK-3268,PAYLOAD,2022-10-25 13:34:34,15.0881943,0.0002322,53.2173,5.8622,30.5193,329.5934,0.00023314,3.422e-05,0.0,0 STARLINK-3268,1 50190U 21125AL  22298.56567660  .00003422  00000-0  23314-3 0  9997,2 50190  53.2173   5.8622 0002322  30.5193 329.5934 15.08819430 50875,6917.943,95.439,541.415,538.202,0.0
50190.0,STARLINK-3268,PAYLOAD,2022-10-26 03:53:02,15.08832122,0.0002399999999999,53.2173,3.1845,29.7352,330.3776,0.00022365,3.272e-05,0.0,0 STARLINK-3268,1 50190U 21125AL  22299.16183702  .00003272  00000-0  22365-3 0  9993,2 50190  53.2173   3.1845 0002400  29.7352 330.3776 15.08832122 50481,6917.904,95.438,541.43,538.109,0.0
50190.0,STARLINK-3268,PAYLOAD,2022-10-26 11:49:58,15.08840691,0.0002434,53.2172,1.6983,31.6345,328.4793,0.00053262,8.199e-05,0.0,0 STARLINK-3268,1 50190U 21125AL  22299.49303821  .00008199  00000-0  53262-3 0  9998,2 50190  53.2172   1.6983 0002434  31.6345 328.4793 15.08840691 51014,6917.878000000002,95.438,541.427,538.059,0.0
50190.0,STARLINK-3268,PAYLOAD,2022-10-26 13:25:21,15.08844852,0.000247,53.217,1.4007,30.7628,329.3508,0.00062871,9.733e-05,0.0,0 STARLINK-3268,1 50190U 21125AL  22299.55927770  .00009733  00000-0  62871-3 0  9991,2 50190  53.2170   1.4007 0002470  30.7628 329.3508 15.08844852 51029,6917.866,95.437,541.439,538.0219999999998,0.0
50190.0,STARLINK-3268,PAYLOAD,2022-10-27 05:19:12,15.0885448,0.0002484,53.2162,358.4271,32.3667,327.7477,0.00036493,5.527e-05,0.0,0 STARLINK-3268,1 50190U 21125AL  22300.22167172  .00005527  00000-0  36493-3 0  9998,2 50190  53.2162 358.4271 0002484  32.3667 327.7477 15.08854480 50646,6917.8359999999975,95.437,541.42,537.9830000000002,0.0
50190.0,STARLINK-3268,PAYLOAD,2022-10-27 11:40:44,15.08853239,0.0002456,53.2165,357.2375,31.4041,328.7097,0.00030206,4.524e-05,0.0,0 STARLINK-3268,1 50190U 21125AL  22300.48663050  .00004524  00000-0  30206-3 0  9994,2 50190  53.2165 357.2375 0002456  31.4041 328.7097 15.08853239 51164,6917.84,95.437,541.404,538.006,0.0
50190.0,STARLINK-3268,PAYLOAD,2022-10-28 11:31:30,15.08856561,0.0002542,53.2169,352.7768,33.0548,327.0602,0.00015028,2.105e-05,0.0,0 STARLINK-3268,1 50190U 21125AL  22301.48021966  .00002105  00000-0  15028-3 0  9997,2 50190  53.2169 352.7768 0002542  33.0548 327.0602 15.08856561 51312,6917.83,95.437,541.453,537.936,0.0
50190.0,STARLINK-3268,PAYLOAD,2022-10-29 08:11:31,15.08852152,0.000217,53.2173,348.9112,31.0184,329.0936,8.091399999999999e-05,1e-05,0.0,0 STARLINK-3268,1 50190U 21125AL  22302.34133511  .00001000  00000-0  80914-4 0  9993,2 50190  53.2173 348.9112 0002170  31.0184 329.0936 15.08852152 50962,6917.843000000003,95.437,541.2090000000002,538.207,0.0
50190.0,STARLINK-3268,PAYLOAD,2022-10-29 09:46:54,15.08843661,0.0002546,53.2174,348.6144,27.227,332.8855,-2.0711e-05,-6.18e-06,0.0,0 STARLINK-3268,1 50190U 21125AL  22302.40757965 -.00000618  00000-0 -20711-4 0  9990,2 50190  53.2174 348.6144 0002546  27.2270 332.8855 15.08843661 51457,6917.869000000002,95.437,541.495,537.9730000000002,0.0
50190.0,STARLINK-3268,PAYLOAD,2022-10-29 12:57:41,15.08842281,0.0002569,53.2173,348.0197,26.603,333.5094,-5.371600000000001e-05,-1.143e-05,0.0,0 STARLINK-3268,1 50190U 21125AL  22302.54005915 -.00001143  00000-0 -53716-4 0  9991,2 50190  53.2173 348.0197 0002569  26.6030 333.5094 15.08842281 51472,6917.873000000001,95.437,541.516,537.961,0.0
50190.0,STARLINK-3268,PAYLOAD,2022-10-30 09:37:42,15.08829336,0.0002302,53.2172,344.1536,27.7014,332.4101,-0.00024059,-4.114e-05,0.0,0 STARLINK-3268,1 50190U 21125AL  22303.40118616 -.00004114  00000-0 -24059-3 0  9998,2 50190  53.2172 344.1536 0002302  27.7014 332.4101 15.08829336 51602,6917.913000000001,95.438,541.37,538.185,0.0
50190.0,STARLINK-3268,PAYLOAD,2022-10-31 11:03:53,15.08826555,0.0002647,53.2171,339.3956,25.7461,334.3662,7.925e-05,9.73e-06,0.0,0 STARLINK-3268,1 50190U 21125AL  22304.46103629  .00000973  00000-0  79250-4 0  9994,2 50190  53.2171 339.3956 0002647  25.7461 334.3662 15.08826555 51769,6917.920999999999,95.438,541.618,537.955,0.0
50190.0,STARLINK-3268,PAYLOAD,2022-10-31 19:00:49,15.08836597,0.0002669,53.2171,337.9089,26.4656,333.6472,0.0002092,3.042e-05,0.0,0 STARLINK-3268,1 50190U 21125AL  22304.79223439  .00003042  00000-0  20920-3 0  9991,2 50190  53.2171 337.9089 0002669  26.4656 333.6472 15.08836597 51812,6917.891,95.438,541.602,537.909,0.0
50190.0,STARLINK-3268,PAYLOAD,2022-11-01 10:54:40,15.08842544,0.0002658,53.2169,334.9353,26.213,333.8996,0.00032179,4.837e-05,0.0,0 STARLINK-3268,1 50190U 21125AL  22305.45463491  .00004837  00000-0  32179-3 0  9991,2 50190  53.2169 334.9353 0002658  26.2130 333.8996 15.08842544 51916,6917.873000000001,95.437,541.576,537.899,0.0
50190.0,STARLINK-3268,PAYLOAD,2022-11-01 18:51:35,15.08850072,0.0002674,53.2168,333.4485,26.7419,333.3711,0.00042415,6.47e-05,0.0,0 STARLINK-3268,1 50190U 21125AL  22305.78583186  .00006470  00000-0  42415-3 0  9990,2 50190  53.2168 333.4485 0002674  26.7419 333.3711 15.08850072 51968,6917.85,95.437,541.564,537.865,0.0
50190.0,STARLINK-3268,PAYLOAD,2022-11-02 02:48:31,15.08848277,0.0002647,53.2168,331.9618,28.1149,331.9986,0.00027704,4.125e-05,0.0,0 STARLINK-3268,1 50190U 21125AL  22306.11703128  .00004125  00000-0  27704-3 0  9997,2 50190  53.2168 331.9618 0002647  28.1149 331.9986 15.08848277 51530,6917.855,95.437,541.5509999999998,537.889,0.0
50190.0,STARLINK-3268,PAYLOAD,2022-11-02 09:10:04,15.08838819,0.0002714,53.2169,330.7722,24.5399,335.5722,5.1477e-05,5.31e-06,0.0,0 STARLINK-3268,1 50190U 21125AL  22306.38199338  .00000531  00000-0  51477-4 0  9990,2 50190  53.2169 330.7722 0002714  24.5399 335.5722 15.08838819 52053,6917.884,95.438,541.627,537.871,0.0
50190.0,STARLINK-3268,PAYLOAD,2022-11-02 18:42:22,15.08843998,0.000268,53.2169,328.9875,27.3643,332.7489,8.313e-05,1.035e-05,0.0,0 STARLINK-3268,1 50190U 21125AL  22306.77943114  .00001035  00000-0  83130-4 0  9993,2 50190  53.2169 328.9875 0002680  27.3643 332.7489 15.08843998 52116,6917.868,95.437,541.587,537.879,0.0
50190.0,STARLINK-3268,PAYLOAD,2022-11-03 10:36:14,15.08846837,0.0002673,53.2165,326.0141,28.6604,331.4535,0.00015685,2.209e-05,0.0,0 STARLINK-3268,1 50190U 21125AL  22307.44182962  .00002209  00000-0  15685-3 0  9997,2 50190  53.2165 326.0141 0002673  28.6604 331.4535 15.08846837 51730,6917.859,95.437,541.5740000000002,537.875,0.0
50190.0,STARLINK-3268,PAYLOAD,2022-11-04 02:30:04,15.08862046,0.0002672,53.2158,323.0401,29.1279,330.9862,0.00052719,8.117e-05,0.0,0 STARLINK-3268,1 50190U 21125AL  22308.10422153  .00008117  00000-0  52719-3 0  9993,2 50190  53.2158 323.0401 0002672  29.1279 330.9862 15.08862046 51839,6917.813,95.436,541.526,537.83,0.0
50190.0,STARLINK-3268,PAYLOAD,2022-11-04 08:51:37,15.08849812,0.000266,53.2162,321.851,28.97,331.1439,0.0001816,2.604e-05,0.0,0 STARLINK-3268,1 50190U 21125AL  22308.36918323  .00002604  00000-0  18160-3 0  9997,2 50190  53.2162 321.8510 0002660  28.9700 331.1439 15.08849812 51877,6917.85,95.437,541.556,537.875,0.0
50190.0,STARLINK-3268,PAYLOAD,2022-11-04 18:23:56,15.08842923,0.0002705,53.2161,320.0665,29.0496,331.0646,5.5164e-05,5.9e-06,0.0,0 STARLINK-3268,1 50190U 21125AL  22308.76662464  .00000590  00000-0  55164-4 0  9991,2 50190  53.2161 320.0665 0002705  29.0496 331.0646 15.08842923 51934,6917.871,95.437,541.6080000000002,537.865,0.0
50190.0,STARLINK-3268,PAYLOAD,2022-11-05 08:42:25,15.088327,0.0002714,53.2173,317.3903,26.7419,333.3713,-2.730800000000001e-05,-7.23e-06,0.0,0 STARLINK-3268,1 50190U 21125AL  22309.36279391 -.00000723  00000-0 -27308-4 0  9990,2 50190  53.2173 317.3903 0002714  26.7419 333.3713 15.08832700 52506,6917.903,95.438,541.645,537.89,0.0
50190.0,STARLINK-3268,PAYLOAD,2022-11-05 18:14:44,15.08827299,0.0002768999999999,53.2174,315.6061,27.1264,332.9872,-0.00015198,-2.706e-05,0.0,0 STARLINK-3268,1 50190U 21125AL  22309.76024214 -.00002706  00000-0 -15198-3 0  9992,2 50190  53.2174 315.6061 0002769  27.1264 332.9872 15.08827299 52087,6917.919,95.438,541.7,537.869,0.0
50190.0,STARLINK-3268,PAYLOAD,2022-11-06 03:47:02,15.08840648,0.0002829,53.2169,313.8218,24.0257,336.0867,8.0118e-06,-1.61e-06,0.0,0 STARLINK-3268,1 50190U 21125AL  22310.15766890 -.00000161  00000-0  80118-5 0  9998,2 50190  53.2169 313.8218 0002829  24.0257 336.0867 15.08840648 52149,6917.878000000002,95.438,541.7,537.786,0.0
50190.0,STARLINK-3268,PAYLOAD,2022-11-06 10:08:34,15.08845611,0.0002912,53.2174,312.633,24.8677,335.2455,2.1348e-06,-2.55e-06,0.0,0 STARLINK-3268,1 50190U 21125AL  22310.42262664 -.00000255  00000-0  21348-5 0  9992,2 50190  53.2174 312.6330 0002912  24.8677 335.2455 15.08845611 52660,6917.863,95.437,541.743,537.714,0.0
50190.0,STARLINK-3268,PAYLOAD,2022-11-07 05:13:13,15.08828277,0.0002691,53.2175,309.0641,28.8275,331.2865,1.4020999999999992e-05,-6.5e-07,0.0,0 STARLINK-3268,1 50190U 21125AL  22311.21752104 -.00000065  00000-0  14021-4 0  9991,2 50190  53.2175 309.0641 0002691  28.8275 331.2865 15.08828277 52309,6917.916,95.438,541.643,537.92,0.0
50190.0,STARLINK-3268,PAYLOAD,2022-11-07 14:45:33,15.08820708,0.0002841,53.2169,307.28,29.4554,330.6598,6.881e-05,8.06e-06,0.0,0 STARLINK-3268,1 50190U 21125AL  22311.61496783  .00000806  00000-0  68810-4 0  9990,2 50190  53.2169 307.2800 0002841  29.4554 330.6598 15.08820708 52849,6917.939,95.439,541.77,537.839,0.0
50190.0,STARLINK-3268,PAYLOAD,2022-11-08 06:39:23,15.08845149,0.0002853999999999,53.2171,304.3067,29.9246,330.1909,0.00012744,1.741e-05,0.0,0 STARLINK-3268,1 50190U 21125AL  22312.27735467  .00001741  00000-0  12744-3 0  9991,2 50190  53.2171 304.3067 0002854  29.9246 330.1909 15.08845149 52467,6917.865,95.437,541.7040000000002,537.755,0.0
